{
  "type": "FeatureCollection",
  "features": [
    {
      "type": "Feature",
      "properties": {
        "norad_id": 66333,
        "name": "STARLINK-35400",
        "group": "last-30-days",
        "lat": -20.15066987265241,
        "lon": -0.38034056404858624,
        "alt_km": 446.0120427051779,
        "timestamp": "2025-12-06T05:40:08.009475+00:00",
        "meta_object_name": "STARLINK-35400",
        "meta_object_id": "2025-253Q",
        "meta_epoch": "2025-12-05T06:00:02.000160",
        "meta_mean_motion": 15.44739826,
        "meta_eccentricity": 9.977e-05,
        "meta_inclination": 43.0001,
        "meta_ra_of_asc_node": 28.5092,
        "meta_arg_of_pericenter": 265.2384,
        "meta_mean_anomaly": 341.4853,
        "meta_ephemeris_type": 0,
        "meta_classification_type": "U",
        "meta_norad_cat_id": 66333,
        "meta_element_set_no": 999,
        "meta_rev_at_epoch": 572,
        "meta_bstar": -0.048598829,
        "meta_mean_motion_dot": -0.02065403,
        "meta_mean_motion_ddot": 0,
        "tle_line1": "1 66333U 25253Q   25339.25002315 -.02065403  00000+0 -48599-1 0  9995",
        "tle_line2": "2 66333  43.0001  28.5092 0000997 265.2384 341.4853 15.44739826  5723"
      },
      "geometry": {
        "type": "Point",
        "coordinates": [
          -0.38034056404858624,
          -20.15066987265241
        ]
      }
    },
    {
      "type": "Feature",
      "properties": {
        "norad_id": 66334,
        "name": "STARLINK-35407",
        "group": "last-30-days",
        "lat": -16.798284467005853,
        "lon": -137.98510261029696,
        "alt_km": 445.2028337428228,
        "timestamp": "2025-12-06T05:40:08.009486+00:00",
        "meta_object_name": "STARLINK-35407",
        "meta_object_id": "2025-253R",
        "meta_epoch": "2025-12-05T06:00:02.000160",
        "meta_mean_motion": 15.40722987,
        "meta_eccentricity": 0.00018864,
        "meta_inclination": 43.0004,
        "meta_ra_of_asc_node": 28.7964,
        "meta_arg_of_pericenter": 250.0139,
        "meta_mean_anomaly": 238.7799,
        "meta_ephemeris_type": 0,
        "meta_classification_type": "U",
        "meta_norad_cat_id": 66334,
        "meta_element_set_no": 999,
        "meta_rev_at_epoch": 572,
        "meta_bstar": -0.0015511421,
        "meta_mean_motion_dot": -0.00064604,
        "meta_mean_motion_ddot": 0,
        "tle_line1": "1 66334U 25253R   25339.25002315 -.00064604  00000+0 -15511-2 0  9995",
        "tle_line2": "2 66334  43.0004  28.7964 0001886 250.0139 238.7799 15.40722987  5728"
      },
      "geometry": {
        "type": "Point",
        "coordinates": [
          -137.98510261029696,
          -16.798284467005853
        ]
      }
    },
    {
      "type": "Feature",
      "properties": {
        "norad_id": 66335,
        "name": "STARLINK-35417",
        "group": "last-30-days",
        "lat": 30.29164705422542,
        "lon": 164.46549025341542,
        "alt_km": 438.6173781149155,
        "timestamp": "2025-12-06T05:40:08.009499+00:00",
        "meta_object_name": "STARLINK-35417",
        "meta_object_id": "2025-253S",
        "meta_epoch": "2025-12-04T12:39:05.398848",
        "meta_mean_motion": 15.40748615,
        "meta_eccentricity": 0.0001535,
        "meta_inclination": 43.0008,
        "meta_ra_of_asc_node": 33.1389,
        "meta_arg_of_pericenter": 260.139,
        "meta_mean_anomaly": 99.9293,
        "meta_ephemeris_type": 0,
        "meta_classification_type": "U",
        "meta_norad_cat_id": 66335,
        "meta_element_set_no": 999,
        "meta_rev_at_epoch": 565,
        "meta_bstar": 0.0028892,
        "meta_mean_motion_dot": 0.00122539,
        "meta_mean_motion_ddot": 0,
        "tle_line1": "1 66335U 25253S   25338.52714582  .00122539  00000+0  28892-2 0  9997",
        "tle_line2": "2 66335  43.0008  33.1389 0001535 260.1390  99.9293 15.40748615  5650"
      },
      "geometry": {
        "type": "Point",
        "coordinates": [
          164.46549025341542,
          30.29164705422542
        ]
      }
    },
    {
      "type": "Feature",
      "properties": {
        "norad_id": 66336,
        "name": "STARLINK-35404",
        "group": "last-30-days",
        "lat": 11.647469003930771,
        "lon": 35.47560042660837,
        "alt_km": 411.49749331791645,
        "timestamp": "2025-12-06T05:40:08.009510+00:00",
        "meta_object_name": "STARLINK-35404",
        "meta_object_id": "2025-253T",
        "meta_epoch": "2025-12-04T13:24:23.446944",
        "meta_mean_motion": 15.50567443,
        "meta_eccentricity": 0.0001415,
        "meta_inclination": 42.9972,
        "meta_ra_of_asc_node": 32.5133,
        "meta_arg_of_pericenter": 288.46,
        "meta_mean_anomaly": 71.6106,
        "meta_ephemeris_type": 0,
        "meta_classification_type": "U",
        "meta_norad_cat_id": 66336,
        "meta_element_set_no": 999,
        "meta_rev_at_epoch": 566,
        "meta_bstar": 0.0026146,
        "meta_mean_motion_dot": 0.00156074,
        "meta_mean_motion_ddot": 0,
        "tle_line1": "1 66336U 25253T   25338.55860471  .00156074  00000+0  26146-2 0  9991",
        "tle_line2": "2 66336  42.9972  32.5133 0001415 288.4600  71.6106 15.50567443  5663"
      },
      "geometry": {
        "type": "Point",
        "coordinates": [
          35.47560042660837,
          11.647469003930771
        ]
      }
    },
    {
      "type": "Feature",
      "properties": {
        "norad_id": 66337,
        "name": "STARLINK-34783",
        "group": "last-30-days",
        "lat": 15.96672717125568,
        "lon": -174.6520277817781,
        "alt_km": 440.6565930785555,
        "timestamp": "2025-12-06T05:40:08.009521+00:00",
        "meta_object_name": "STARLINK-34783",
        "meta_object_id": "2025-253U",
        "meta_epoch": "2025-12-05T04:06:11.484864",
        "meta_mean_motion": 15.4074624,
        "meta_eccentricity": 6.071e-05,
        "meta_inclination": 43.0001,
        "meta_ra_of_asc_node": 29.3705,
        "meta_arg_of_pericenter": 244.7853,
        "meta_mean_anomaly": 115.2941,
        "meta_ephemeris_type": 0,
        "meta_classification_type": "U",
        "meta_norad_cat_id": 66337,
        "meta_element_set_no": 999,
        "meta_rev_at_epoch": 575,
        "meta_bstar": 0.0028759296,
        "meta_mean_motion_dot": 0.00121957,
        "meta_mean_motion_ddot": 0,
        "tle_line1": "1 66337U 25253U   25339.17096626  .00121957  00000+0  28759-2 0  9998",
        "tle_line2": "2 66337  43.0001  29.3705 0000607 244.7853 115.2941 15.40746240  5750"
      },
      "geometry": {
        "type": "Point",
        "coordinates": [
          -174.6520277817781,
          15.96672717125568
        ]
      }
    },
    {
      "type": "Feature",
      "properties": {
        "norad_id": 66338,
        "name": "STARLINK-35477",
        "group": "last-30-days",
        "lat": 36.8336616777536,
        "lon": 149.82719680991937,
        "alt_km": 438.30877170911026,
        "timestamp": "2025-12-06T05:40:08.009531+00:00",
        "meta_object_name": "STARLINK-35477",
        "meta_object_id": "2025-253V",
        "meta_epoch": "2025-12-05T04:15:52.086816",
        "meta_mean_motion": 15.40685248,
        "meta_eccentricity": 0.00010908,
        "meta_inclination": 43.0005,
        "meta_ra_of_asc_node": 29.421,
        "meta_arg_of_pericenter": 254.8175,
        "meta_mean_anomaly": 105.2561,
        "meta_ephemeris_type": 0,
        "meta_classification_type": "U",
        "meta_norad_cat_id": 66338,
        "meta_element_set_no": 999,
        "meta_rev_at_epoch": 575,
        "meta_bstar": 0.0019033954,
        "meta_mean_motion_dot": 0.00080004,
        "meta_mean_motion_ddot": 0,
        "tle_line1": "1 66338U 25253V   25339.17768619  .00080004  00000+0  19034-2 0  9990",
        "tle_line2": "2 66338  43.0005  29.4210 0001090 254.8175 105.2561 15.40685248  5750"
      },
      "geometry": {
        "type": "Point",
        "coordinates": [
          149.82719680991937,
          36.8336616777536
        ]
      }
    },
    {
      "type": "Feature",
      "properties": {
        "norad_id": 66339,
        "name": "STARLINK-35443",
        "group": "last-30-days",
        "lat": -42.9173428818509,
        "lon": -70.8421059348595,
        "alt_km": 446.46743677089034,
        "timestamp": "2025-12-06T05:40:08.009542+00:00",
        "meta_object_name": "STARLINK-35443",
        "meta_object_id": "2025-253W",
        "meta_epoch": "2025-12-05T06:00:02.000160",
        "meta_mean_motion": 15.40718327,
        "meta_eccentricity": 0.00018463,
        "meta_inclination": 43.0005,
        "meta_ra_of_asc_node": 28.6417,
        "meta_arg_of_pericenter": 254.0754,
        "meta_mean_anomaly": 296.9249,
        "meta_ephemeris_type": 0,
        "meta_classification_type": "U",
        "meta_norad_cat_id": 66339,
        "meta_element_set_no": 999,
        "meta_rev_at_epoch": 577,
        "meta_bstar": -0.0015372135,
        "meta_mean_motion_dot": -0.00064021,
        "meta_mean_motion_ddot": 0,
        "tle_line1": "1 66339U 25253W   25339.25002315 -.00064021  00000+0 -15372-2 0  9998",
        "tle_line2": "2 66339  43.0005  28.6417 0001846 254.0754 296.9249 15.40718327  5773"
      },
      "geometry": {
        "type": "Point",
        "coordinates": [
          -70.8421059348595,
          -42.9173428818509
        ]
      }
    }
  ]
}